QIANFAN-33              
1 61566U 24185Q   25238.92328650  .00000306  00000+0  21207-3 0  9992
2 61566  88.9750  90.8458 0005383 317.0509  43.0247 13.96418614 54115
QIANFAN-34              
1 61567U 24185R   25238.90246301  .00000273  00000+0  16955-3 0  9990
2 61567  88.9729  90.5542 0004849 327.5548  32.5334 14.02172074 54247
QIANFAN-35              
1 61568U 24185S   25238.91215053  .00000683  00000+0  27133-3 0  9997
2 61568  88.9752  89.5530 0004561 288.4455  71.6243 14.27685105 54796
QIANFAN-36              
1 61569U 24185T   25238.89938701  .00000087  00000+0  10779-3 0  9993
2 61569  88.9739  92.2948 0006477  13.1500 346.9821 13.55548429 53312
QIANFAN-37              
1 62238U 24232B   25238.93194841  .00000048  00000+0  56265-4 0  9992
2 62238  88.9936  52.2170 0002488  81.8344 278.3090 13.50960671 84619
QIANFAN-38              
1 62239U 24232C   25238.88277541  .00000048  00000+0  55478-4 0  9991
2 62239  88.9942  52.1305 0015777 141.3394 218.8889 13.50964732 84660
QIANFAN-39              
1 62240U 24232D   25238.93924856  .00000157  00000+0  60501-4 0  9991
2 62240  88.9944  49.6389 0018361  74.4003 285.9215 14.25236081 86035
QIANFAN-40              
1 62241U 24232E   25238.91566400  .00000054  00000+0  64985-4 0  9993
2 62241  88.9971  51.6813 0014608 148.1743 212.0294 13.50961358 85037
